[{"OBJECT_NAME":"S5","OBJECT_ID":"2019-009D","EPOCH":"2024-01-25T00:35:24.160416","MEAN_MOTION":0.99335001,"ECCENTRICITY":0.0001977,"INCLINATION":4.3197,"RA_OF_ASC_NODE":81.1485,"ARG_OF_PERICENTER":131.3541,"MEAN_ANOMALY":180.8245,"EPHEMERIS_TYPE":0,"CLASSIFICATION_TYPE":"U","NORAD_CAT_ID":44065,"ELEMENT_SET_NO":999,"REV_AT_EPOCH":1775,"BSTAR":0,"MEAN_MOTION_DOT":-5.0e-8,"MEAN_MOTION_DDOT":0},{"OBJECT_NAME":"CHINASAT 6C (ZX 6C)","OBJECT_ID":"2019-012A","EPOCH":"2024-01-25T13:43:03.213408","MEAN_MOTION":1.00270992,"ECCENTRICITY":0.0004882,"INCLINATION":0.094,"RA_OF_ASC_NODE":93.0749,"ARG_OF_PERICENTER":110.9915,"MEAN_ANOMALY":256.4978,"EPHEMERIS_TYPE":0,"CLASSIFICATION_TYPE":"U","NORAD_CAT_ID":44067,"ELEMENT_SET_NO":999,"REV_AT_EPOCH":1798,"BSTAR":0,"MEAN_MOTION_DOT":-3.35e-6,"MEAN_MOTION_DDOT":0},{"OBJECT_NAME":"AIS & APRS & ARIS & R\/B","OBJECT_ID":"2019-018AC","EPOCH":"2024-01-25T13:08:43.807200","MEAN_MOTION":15.63084087,"ECCENTRICITY":0.0027084,"INCLINATION":97.3672,"RA_OF_ASC_NODE":128.1518,"ARG_OF_PERICENTER":158.4374,"MEAN_ANOMALY":201.8031,"EPHEMERIS_TYPE":0,"CLASSIFICATION_TYPE":"U","NORAD_CAT_ID":44104,"ELEMENT_SET_NO":999,"REV_AT_EPOCH":27024,"BSTAR":0.00065811,"MEAN_MOTION_DOT":0.00061191,"MEAN_MOTION_DDOT":0},{"OBJECT_NAME":"O3B FM20","OBJECT_ID":"2019-020A","EPOCH":"2024-01-25T06:58:00.687072","MEAN_MOTION":5.00115885,"ECCENTRICITY":0.0002479,"INCLINATION":0.0473,"RA_OF_ASC_NODE":3.3405,"ARG_OF_PERICENTER":292.9293,"MEAN_ANOMALY":63.6984,"EPHEMERIS_TYPE":0,"CLASSIFICATION_TYPE":"U","NORAD_CAT_ID":44112,"ELEMENT_SET_NO":999,"REV_AT_EPOCH":8785,"BSTAR":0,"MEAN_MOTION_DOT":-2.6e-7,"MEAN_MOTION_DDOT":0},{"OBJECT_NAME":"O3B FM19","OBJECT_ID":"2019-020B","EPOCH":"2024-01-24T22:01:14.974752","MEAN_MOTION":5.00115533,"ECCENTRICITY":0.0003912,"INCLINATION":0.0474,"RA_OF_ASC_NODE":16.3483,"ARG_OF_PERICENTER":272.7739,"MEAN_ANOMALY":70.8292,"EPHEMERIS_TYPE":0,"CLASSIFICATION_TYPE":"U","NORAD_CAT_ID":44113,"ELEMENT_SET_NO":999,"REV_AT_EPOCH":8770,"BSTAR":0,"MEAN_MOTION_DOT":-2.6e-7,"MEAN_MOTION_DDOT":0},{"OBJECT_NAME":"O3B FM17","OBJECT_ID":"2019-020C","EPOCH":"2024-01-25T09:32:12.188256","MEAN_MOTION":5.00116194,"ECCENTRICITY":0.0002599,"INCLINATION":0.0593,"RA_OF_ASC_NODE":346.1717,"ARG_OF_PERICENTER":317.1429,"MEAN_ANOMALY":56.6542,"EPHEMERIS_TYPE":0,"CLASSIFICATION_TYPE":"U","NORAD_CAT_ID":44114,"ELEMENT_SET_NO":999,"REV_AT_EPOCH":8781,"BSTAR":0,"MEAN_MOTION_DOT":-2.6e-7,"MEAN_MOTION_DDOT":0},{"OBJECT_NAME":"O3B FM18","OBJECT_ID":"2019-020D","EPOCH":"2024-01-25T13:02:54.765024","MEAN_MOTION":5.00116194,"ECCENTRICITY":0.0002769,"INCLINATION":0.047,"RA_OF_ASC_NODE":3.6651,"ARG_OF_PERICENTER":301.9026,"MEAN_ANOMALY":54.4002,"EPHEMERIS_TYPE":0,"CLASSIFICATION_TYPE":"U","NORAD_CAT_ID":44115,"ELEMENT_SET_NO":999,"REV_AT_EPOCH":8793,"BSTAR":0,"MEAN_MOTION_DOT":-2.6e-7,"MEAN_MOTION_DDOT":0},{"OBJECT_NAME":"ARABSAT-6A","OBJECT_ID":"2019-021A","EPOCH":"2024-01-25T13:14:21.416928","MEAN_MOTION":1.00268858,"ECCENTRICITY":0.0005154,"INCLINATION":0.0386,"RA_OF_ASC_NODE":37.1893,"ARG_OF_PERICENTER":252.1276,"MEAN_ANOMALY":64.0979,"EPHEMERIS_TYPE":0,"CLASSIFICATION_TYPE":"U","NORAD_CAT_ID":44186,"ELEMENT_SET_NO":999,"REV_AT_EPOCH":1739,"BSTAR":0,"MEAN_MOTION_DOT":1.54e-6,"MEAN_MOTION_DDOT":0},{"OBJECT_NAME":"TIANHUI 2-01A","OBJECT_ID":"2019-024A","EPOCH":"2024-01-25T11:43:06.579840","MEAN_MOTION":15.1668165,"ECCENTRICITY":0.0001459,"INCLINATION":97.468,"RA_OF_ASC_NODE":30.7366,"ARG_OF_PERICENTER":100.2788,"MEAN_ANOMALY":259.8609,"EPHEMERIS_TYPE":0,"CLASSIFICATION_TYPE":"U","NORAD_CAT_ID":44207,"ELEMENT_SET_NO":999,"REV_AT_EPOCH":26246,"BSTAR":0.00023111,"MEAN_MOTION_DOT":4.459e-5,"MEAN_MOTION_DDOT":0},{"OBJECT_NAME":"TIANHUI 2-01B","OBJECT_ID":"2019-024C","EPOCH":"2024-01-25T13:18:06.892416","MEAN_MOTION":15.16682227,"ECCENTRICITY":0.0001615,"INCLINATION":97.468,"RA_OF_ASC_NODE":30.7994,"ARG_OF_PERICENTER":94.7365,"MEAN_ANOMALY":265.4053,"EPHEMERIS_TYPE":0,"CLASSIFICATION_TYPE":"U","NORAD_CAT_ID":44209,"ELEMENT_SET_NO":999,"REV_AT_EPOCH":26247,"BSTAR":0.0002344,"MEAN_MOTION_DOT":4.523e-5,"MEAN_MOTION_DDOT":0},{"OBJECT_NAME":"AFOTEC-1 (FALCON ODE)","OBJECT_ID":"2019-026A","EPOCH":"2024-01-23T16:09:22.897152","MEAN_MOTION":15.7160105,"ECCENTRICITY":0.0013108,"INCLINATION":40.0059,"RA_OF_ASC_NODE":112.8905,"ARG_OF_PERICENTER":99.9839,"MEAN_ANOMALY":260.2459,"EPHEMERIS_TYPE":0,"CLASSIFICATION_TYPE":"U","NORAD_CAT_ID":44225,"ELEMENT_SET_NO":999,"REV_AT_EPOCH":26374,"BSTAR":0.0014723,"MEAN_MOTION_DOT":0.00200956,"MEAN_MOTION_DDOT":0}]
