44065,S5,2019,1449.64,-1.0,P,4.32,Active,0,GSO,USA,USA,Unknown,Unknown,Unknown,1 44065U 19009D   24025.02458519 -.00000005  00000+0  00000+0 0  9999,2 44065   4.3197  81.1485 0001977 131.3541 180.8245  0.99335001 17752,0.99335001,0.0001977,GSO
44067,CHINASAT 6C (ZX 6C),2019,1436.11,4600.0,P,0.09,Active,1,GSO,PRC,China,Commercial/Government,Communications,Long March,1 44067U 19012A   24025.57156497 -.00000335  00000+0  00000+0 0  9991,2 44067   0.0940  93.0749 0004882 110.9915 256.4978  1.00270992 17982,1.00270992,0.0004882,GEO
44104,AIS & APRS & ARIS & R/B,2019,92.13,-1.0,+,97.37,Active,0,LEO,India,India,Unknown,Unknown,Unknown,1 44104U 19018AC  24025.54772925  .00061191  00000+0  65811-3 0  9997,2 44104  97.3672 128.1518 0027084 158.4374 201.8031 15.63084087270240,15.63084087,0.0027084,LEO
44112,O3B FM20,2019,287.93,700.0,+,0.05,Active,1,MEO,French Guiana,O3b Networks,Commercial,Communications,Soyuz,1 44112U 19020A   24025.29028573 -.00000026  00000+0  00000+0 0  9990,2 44112   0.0473   3.3405 0002479 292.9293  63.6984  5.00115885 87858,5.00115885,0.0002479,MEO
44113,O3B FM19,2019,287.93,700.0,+,0.05,Active,1,MEO,French Guiana,O3b Networks,Commercial,Communications,Soyuz,1 44113U 19020B   24024.91753443 -.00000026  00000+0  00000+0 0  9990,2 44113   0.0474  16.3483 0003912 272.7739  70.8292  5.00115533 87700,5.00115533,0.0003912,MEO
44114,O3B FM17,2019,287.93,700.0,+,0.06,Active,1,MEO,French Guiana,O3b Networks,Commercial,Communications,Soyuz,1 44114U 19020C   24025.39736329 -.00000026  00000+0  00000+0 0  9998,2 44114   0.0593 346.1717 0002599 317.1429  56.6542  5.00116194 87813,5.00116194,0.0002599,MEO
44115,O3B FM18,2019,287.93,700.0,+,0.05,Active,1,MEO,French Guiana,O3b Networks,Commercial,Communications,Soyuz,1 44115U 19020D   24025.54368941 -.00000026  00000+0  00000+0 0  9997,2 44115   0.0470   3.6651 0002769 301.9026  54.4002  5.00116194 87933,5.00116194,0.0002769,MEO
44186,ARABSAT-6A,2019,1436.14,6465.0,+,0.04,Active,1,GSO,USA,Arabsat,Commercial,Communications,Falcon,1 44186U 19021A   24025.55163677  .00000154  00000+0  00000+0 0  9997,2 44186   0.0386  37.1893 0005154 252.1276  64.0979  1.00268858 17396,1.00268858,0.0005154,GEO
44207,TIANHUI 2-01A,2019,94.94,2500.0,+,97.47,Active,1,LEO,PRC,China,Government,Earth Observation,Long March,1 44207U 19024A   24025.48827060  .00004459  00000+0  23111-3 0  9993,2 44207  97.4680  30.7366 0001459 100.2788 259.8609 15.16681650262461,15.1668165,0.0001459,LEO
44209,TIANHUI 2-01B,2019,94.94,2500.0,+,97.47,Active,1,LEO,PRC,China,Government,Earth Observation,Long March,1 44209U 19024C   24025.55424644  .00004523  00000+0  23440-3 0  9991,2 44209  97.4680  30.7994 0001615  94.7365 265.4053 15.16682227262470,15.16682227,0.0001615,LEO
44225,AFOTEC-1 (FALCON ODE),2019,91.63,-1.0,+,40.01,Active,0,LEO,New Zealand,USA,Unknown,Unknown,Unknown,1 44225U 19026A   24023.67318168  .00200956  00000+0  14723-2 0  9996,2 44225  40.0059 112.8905 0013108  99.9839 260.2459 15.71601050263749,15.7160105,0.0013108,LEO
